[{"CCSDS_OMM_VERS":"2.0","COMMENT":"GENERATED VIA SPACE-TRACK.ORG API","CREATION_DATE":"2020-12-02T22:36:09","ORIGINATOR":"18 SPCS","OBJECT_NAME":"FALCON 9 DEB","OBJECT_ID":"2020-055BN","CENTER_NAME":"EARTH","REF_FRAME":"TEME","TIME_SYSTEM":"UTC","MEAN_ELEMENT_THEORY":"SGP4","EPOCH":"2020-12-02T13:35:22.087104","MEAN_MOTION":"15.60658767","ECCENTRICITY":"0.00117000","INCLINATION":"53.0089","RA_OF_ASC_NODE":"79.7021","ARG_OF_PERICENTER":"300.5480","MEAN_ANOMALY":"59.4377","EPHEMERIS_TYPE":"0","CLASSIFICATION_TYPE":"U","NORAD_CAT_ID":"46087","ELEMENT_SET_NO":"999","REV_AT_EPOCH":"2290","BSTAR":"0.00025006000000","MEAN_MOTION_DOT":"0.00020703","MEAN_MOTION_DDOT":"0.0000000000000","SEMIMAJOR_AXIS":"6763.890","PERIOD":"92.268","APOAPSIS":"393.668","PERIAPSIS":"377.841","OBJECT_TYPE":"DEBRIS","RCS_SIZE":"MEDIUM","COUNTRY_CODE":"US","LAUNCH_DATE":"2020-08-07","SITE":"AFETR","DECAY_DATE":null,"FILE":"2896325","GP_ID":"166764064","TLE_LINE0":"0 FALCON 9 DEB","TLE_LINE1":"1 46087U 20055BN  20337.56622786  .00020703  00000-0  25006-3 0  9992","TLE_LINE2":"2 46087  53.0089  79.7021 0011700 300.5480  59.4377 15.60658767 22906"},{"CCSDS_OMM_VERS":"2.0","COMMENT":"GENERATED VIA SPACE-TRACK.ORG API","CREATION_DATE":"2020-12-02T19:24:44","ORIGINATOR":"18 SPCS","OBJECT_NAME":"STARLINK-1563","OBJECT_ID":"2020-055BD","CENTER_NAME":"EARTH","REF_FRAME":"TEME","TIME_SYSTEM":"UTC","MEAN_ELEMENT_THEORY":"SGP4","EPOCH":"2020-12-02T13:49:07.267584","MEAN_MOTION":"15.05581353","ECCENTRICITY":"0.00012350","INCLINATION":"53.0043","RA_OF_ASC_NODE":"89.7938","ARG_OF_PERICENTER":"95.3242","MEAN_ANOMALY":"264.7887","EPHEMERIS_TYPE":"0","CLASSIFICATION_TYPE":"U","NORAD_CAT_ID":"46078","ELEMENT_SET_NO":"999","REV_AT_EPOCH":"1942","BSTAR":"-0.00000215590000","MEAN_MOTION_DOT":"-0.00000311","MEAN_MOTION_DDOT":"0.0000000000000","SEMIMAJOR_AXIS":"6927.858","PERIOD":"95.644","APOAPSIS":"550.579","PERIAPSIS":"548.868","OBJECT_TYPE":"PAYLOAD","RCS_SIZE":"LARGE","COUNTRY_CODE":"US","LAUNCH_DATE":"2020-08-07","SITE":"AFETR","DECAY_DATE":null,"FILE":"2896233","GP_ID":"166760156","TLE_LINE0":"0 STARLINK-1563","TLE_LINE1":"1 46078U 20055BD  20337.57577856 -.00000311  00000-0 -21559-5 0  9996","TLE_LINE2":"2 46078  53.0043  89.7938 0001235  95.3242 264.7887 15.05581353 19426"},{"CCSDS_OMM_VERS":"2.0","COMMENT":"GENERATED VIA SPACE-TRACK.ORG API","CREATION_DATE":"2020-12-02T19:24:44","ORIGINATOR":"18 SPCS","OBJECT_NAME":"STARLINK-1542","OBJECT_ID":"2020-055AY","CENTER_NAME":"EARTH","REF_FRAME":"TEME","TIME_SYSTEM":"UTC","MEAN_ELEMENT_THEORY":"SGP4","EPOCH":"2020-12-02T13:53:53.775168","MEAN_MOTION":"15.05587672","ECCENTRICITY":"0.00013390","INCLINATION":"53.0023","RA_OF_ASC_NODE":"89.7862","ARG_OF_PERICENTER":"101.6153","MEAN_ANOMALY":"258.4985","EPHEMERIS_TYPE":"0","CLASSIFICATION_TYPE":"U","NORAD_CAT_ID":"46073","ELEMENT_SET_NO":"999","REV_AT_EPOCH":"1945","BSTAR":"0.00022697000000","MEAN_MOTION_DOT":"0.00003030","MEAN_MOTION_DDOT":"0.0000000000000","SEMIMAJOR_AXIS":"6927.839","PERIOD":"95.643","APOAPSIS":"550.631","PERIAPSIS":"548.776","OBJECT_TYPE":"PAYLOAD","RCS_SIZE":"LARGE","COUNTRY_CODE":"US","LAUNCH_DATE":"2020-08-07","SITE":"AFETR","DECAY_DATE":null,"FILE":"2896233","GP_ID":"166761318","TLE_LINE0":"0 STARLINK-1542","TLE_LINE1":"1 46073U 20055AY  20337.57909462  .00003030  00000-0  22697-3 0  9994","TLE_LINE2":"2 46073  53.0023  89.7862 0001339 101.6153 258.4985 15.05587672 19454"},{"CCSDS_OMM_VERS":"2.0","COMMENT":"GENERATED VIA SPACE-TRACK.ORG API","CREATION_DATE":"2020-12-02T19:24:44","ORIGINATOR":"18 SPCS","OBJECT_NAME":"STARLINK-1578","OBJECT_ID":"2020-055BH","CENTER_NAME":"EARTH","REF_FRAME":"TEME","TIME_SYSTEM":"UTC","MEAN_ELEMENT_THEORY":"SGP4","EPOCH":"2020-12-02T13:58:40.245600","MEAN_MOTION":"15.05583019","ECCENTRICITY":"0.00012530","INCLINATION":"53.0041","RA_OF_ASC_NODE":"89.7738","ARG_OF_PERICENTER":"93.7416","MEAN_ANOMALY":"266.3715","EPHEMERIS_TYPE":"0","CLASSIFICATION_TYPE":"U","NORAD_CAT_ID":"46082","ELEMENT_SET_NO":"999","REV_AT_EPOCH":"1945","BSTAR":"0.00009230300000","MEAN_MOTION_DOT":"0.00001066","MEAN_MOTION_DDOT":"0.0000000000000","SEMIMAJOR_AXIS":"6927.853","PERIOD":"95.644","APOAPSIS":"550.586","PERIAPSIS":"548.850","OBJECT_TYPE":"PAYLOAD","RCS_SIZE":"MEDIUM","COUNTRY_CODE":"US","LAUNCH_DATE":"2020-08-07","SITE":"AFETR","DECAY_DATE":null,"FILE":"2896233","GP_ID":"166760657","TLE_LINE0":"0 STARLINK-1578","TLE_LINE1":"1 46082U 20055BH  20337.58241025  .00001066  00000-0  92303-4 0  9998","TLE_LINE2":"2 46082  53.0041  89.7738 0001253  93.7416 266.3715 15.05583019 19454"},{"CCSDS_OMM_VERS":"2.0","COMMENT":"GENERATED VIA SPACE-TRACK.ORG API","CREATION_DATE":"2020-12-02T19:24:44","ORIGINATOR":"18 SPCS","OBJECT_NAME":"STARLINK-1551","OBJECT_ID":"2020-055BA","CENTER_NAME":"EARTH","REF_FRAME":"TEME","TIME_SYSTEM":"UTC","MEAN_ELEMENT_THEORY":"SGP4","EPOCH":"2020-12-02T14:08:13.722144","MEAN_MOTION":"15.05595687","ECCENTRICITY":"0.00017260","INCLINATION":"53.0043","RA_OF_ASC_NODE":"89.7432","ARG_OF_PERICENTER":"85.7015","MEAN_ANOMALY":"274.4171","EPHEMERIS_TYPE":"0","CLASSIFICATION_TYPE":"U","NORAD_CAT_ID":"46075","ELEMENT_SET_NO":"999","REV_AT_EPOCH":"1945","BSTAR":"-0.00017752000000","MEAN_MOTION_DOT":"-0.00002866","MEAN_MOTION_DDOT":"0.0000000000000","SEMIMAJOR_AXIS":"6927.814","PERIOD":"95.643","APOAPSIS":"550.875","PERIAPSIS":"548.484","OBJECT_TYPE":"PAYLOAD","RCS_SIZE":"LARGE","COUNTRY_CODE":"US","LAUNCH_DATE":"2020-08-07","SITE":"AFETR","DECAY_DATE":null,"FILE":"2896233","GP_ID":"166760392","TLE_LINE0":"0 STARLINK-1551","TLE_LINE1":"1 46075U 20055BA  20337.58904771 -.00002866  00000-0 -17752-3 0  9999","TLE_LINE2":"2 46075  53.0043  89.7432 0001726  85.7015 274.4171 15.05595687 19450"},{"CCSDS_OMM_VERS":"2.0","COMMENT":"GENERATED VIA SPACE-TRACK.ORG API","CREATION_DATE":"2020-12-02T19:24:44","ORIGINATOR":"18 SPCS","OBJECT_NAME":"FALCON 9 DEB","OBJECT_ID":"2020-055BM","CENTER_NAME":"EARTH","REF_FRAME":"TEME","TIME_SYSTEM":"UTC","MEAN_ELEMENT_THEORY":"SGP4","EPOCH":"2020-12-02T14:08:38.473152","MEAN_MOTION":"15.60287120","ECCENTRICITY":"0.00139580","INCLINATION":"53.0103","RA_OF_ASC_NODE":"79.8688","ARG_OF_PERICENTER":"307.4848","MEAN_ANOMALY":"52.4894","EPHEMERIS_TYPE":"0","CLASSIFICATION_TYPE":"U","NORAD_CAT_ID":"46086","ELEMENT_SET_NO":"999","REV_AT_EPOCH":"2290","BSTAR":"0.00021773000000","MEAN_MOTION_DOT":"0.00017714","MEAN_MOTION_DDOT":"0.0000000000000","SEMIMAJOR_AXIS":"6764.964","PERIOD":"92.290","APOAPSIS":"396.271","PERIAPSIS":"377.386","OBJECT_TYPE":"DEBRIS","RCS_SIZE":"MEDIUM","COUNTRY_CODE":"US","LAUNCH_DATE":"2020-08-07","SITE":"AFETR","DECAY_DATE":null,"FILE":"2896233","GP_ID":"166760157","TLE_LINE0":"0 FALCON 9 DEB","TLE_LINE1":"1 46086U 20055BM  20337.58933418  .00017714  00000-0  21773-3 0  9995","TLE_LINE2":"2 46086  53.0103  79.8688 0013958 307.4848  52.4894 15.60287120 22901"},{"CCSDS_OMM_VERS":"2.0","COMMENT":"GENERATED VIA SPACE-TRACK.ORG API","CREATION_DATE":"2020-12-02T19:24:44","ORIGINATOR":"18 SPCS","OBJECT_NAME":"GLOBAL-8","OBJECT_ID":"2020-055BQ","CENTER_NAME":"EARTH","REF_FRAME":"TEME","TIME_SYSTEM":"UTC","MEAN_ELEMENT_THEORY":"SGP4","EPOCH":"2020-12-02T14:10:14.702016","MEAN_MOTION":"15.54598594","ECCENTRICITY":"0.00019940","INCLINATION":"53.0074","RA_OF_ASC_NODE":"83.4721","ARG_OF_PERICENTER":"119.2446","MEAN_ANOMALY":"240.8763","EPHEMERIS_TYPE":"0","CLASSIFICATION_TYPE":"U","NORAD_CAT_ID":"46089","ELEMENT_SET_NO":"999","REV_AT_EPOCH":"2285","BSTAR":"0.00021641000000","MEAN_MOTION_DOT":"0.00014101","MEAN_MOTION_DDOT":"0.0000000000000","SEMIMAJOR_AXIS":"6781.456","PERIOD":"92.628","APOAPSIS":"404.673","PERIAPSIS":"401.969","OBJECT_TYPE":"PAYLOAD","RCS_SIZE":"MEDIUM","COUNTRY_CODE":"US","LAUNCH_DATE":"2020-08-07","SITE":"AFETR","DECAY_DATE":null,"FILE":"2896233","GP_ID":"166761320","TLE_LINE0":"0 GLOBAL-8","TLE_LINE1":"1 46089U 20055BQ  20337.59044794  .00014101  00000-0  21641-3 0  9990","TLE_LINE2":"2 46089  53.0074  83.4721 0001994 119.2446 240.8763 15.54598594 22855"},{"CCSDS_OMM_VERS":"2.0","COMMENT":"GENERATED VIA SPACE-TRACK.ORG API","CREATION_DATE":"2020-12-02T19:24:44","ORIGINATOR":"18 SPCS","OBJECT_NAME":"FALCON 9 DEB","OBJECT_ID":"2020-055BL","CENTER_NAME":"EARTH","REF_FRAME":"TEME","TIME_SYSTEM":"UTC","MEAN_ELEMENT_THEORY":"SGP4","EPOCH":"2020-12-02T14:11:22.544160","MEAN_MOTION":"15.59421755","ECCENTRICITY":"0.00106570","INCLINATION":"53.0136","RA_OF_ASC_NODE":"80.6567","ARG_OF_PERICENTER":"323.2365","MEAN_ANOMALY":"36.7915","EPHEMERIS_TYPE":"0","CLASSIFICATION_TYPE":"U","NORAD_CAT_ID":"46085","ELEMENT_SET_NO":"999","REV_AT_EPOCH":"2289","BSTAR":"0.00023298000000","MEAN_MOTION_DOT":"0.00018331","MEAN_MOTION_DDOT":"0.0000000000000","SEMIMAJOR_AXIS":"6767.466","PERIOD":"92.341","APOAPSIS":"396.543","PERIAPSIS":"382.119","OBJECT_TYPE":"DEBRIS","RCS_SIZE":"MEDIUM","COUNTRY_CODE":"US","LAUNCH_DATE":"2020-08-07","SITE":"AFETR","DECAY_DATE":null,"FILE":"2896233","GP_ID":"166761781","TLE_LINE0":"0 FALCON 9 DEB","TLE_LINE1":"1 46085U 20055BL  20337.59123315  .00018331  00000-0  23298-3 0  9992","TLE_LINE2":"2 46085  53.0136  80.6567 0010657 323.2365  36.7915 15.59421755 22894"}]